{"type":"FeatureCollection","features":[{"type":"Feature","geometry":{"type":"Point","coordinates":[2.3517225,48.8493951]},"properties":{"osm_id":602294434,"ref":"PA_529","artist_name":"Invader","artwork_subject":"street_art","description":null}},{"type":"Feature","geometry":{"type":"Point","coordinates":[2.3422578,48.8600492]},"properties":{"osm_id":677998805,"ref":"PA_1264","artist_name":"Invader","artwork_subject":"street_art","description":"dans le musée en herbe"}},{"type":"Feature","geometry":{"type":"Point","coordinates":[2.3534143,48.8668763]},"properties":{"osm_id":706575523,"ref":"PA_956","artist_name":"Invader","artwork_subject":"street_art","description":"au dessus du bistrot"}},{"type":"Feature","geometry":{"type":"Point","coordinates":[2.3564871,48.8652805]},"properties":{"osm_id":708113045,"ref":"PA_193","artist_name":"Invader","artwork_subject":"street_art","description":null}},{"type":"Feature","geometry":{"type":"Point","coordinates":[2.3627876,48.8637594]},"properties":{"osm_id":713468869,"ref":"PA_959","artist_name":"Invader","artwork_subject":"street_art","description":null}},{"type":"Feature","geometry":{"type":"Point","coordinates":[2.3637503,48.86216]},"properties":{"osm_id":713971886,"ref":"PA_655","artist_name":"Invader","artwork_subject":"street_art","description":null}},{"type":"Feature","geometry":{"type":"Point","coordinates":[2.353077,48.8475317]},"properties":{"osm_id":715386190,"ref":"PA_1332","artist_name":"Invader","artwork_subject":"street_art","description":"un crane avec une bougie dessu et un verre de vin à gauche"}},{"type":"Feature","geometry":{"type":"Point","coordinates":[2.3654975,48.823273]},"properties":{"osm_id":924155749,"ref":"PA_1109","artist_name":"Invader","artwork_subject":"street_art","description":null}},{"type":"Feature","geometry":{"type":"Point","coordinates":[2.3515767,48.8697538]},"properties":{"osm_id":1822082670,"ref":"PA_859","artist_name":"Invader","artwork_subject":"street_art","description":null}},{"type":"Feature","geometry":{"type":"Point","coordinates":[2.4012255,48.8519395]},"properties":{"osm_id":1980835332,"ref":"PA_831","artist_name":"Invader","artwork_subject":"street_art","description":null}},{"type":"Feature","geometry":{"type":"Point","coordinates":[2.3712992,48.8895536]},"properties":{"osm_id":2350539261,"ref":"PA_883","artist_name":"Invader","artwork_subject":"street_art","description":null}},{"type":"Feature","geometry":{"type":"Point","coordinates":[2.3187591,48.8874541]},"properties":{"osm_id":2420856814,"ref":"PA_1438","artist_name":"Invader","artwork_subject":"street_art","description":null}},{"type":"Feature","geometry":{"type":"Point","coordinates":[2.357047,48.8259934]},"properties":{"osm_id":2542446688,"ref":"PA_1037","artist_name":"Invader","artwork_subject":"street_art","description":"petipoto"}},{"type":"Feature","geometry":{"type":"Point","coordinates":[2.3369122,48.8827523]},"properties":{"osm_id":5935024219,"ref":"PA_1060","artist_name":"Invader","artwork_subject":"street_art","description":null}},{"type":"Feature","geometry":{"type":"Point","coordinates":[2.3687323,48.8354551]},"properties":{"osm_id":6549846685,"ref":"PA_1205","artist_name":"Invader","artwork_subject":"street_art","description":null}},{"type":"Feature","geometry":{"type":"Point","coordinates":[2.3629908,48.8334829]},"properties":{"osm_id":7459375630,"ref":"PA_1240","artist_name":"Invader","artwork_subject":"street_art","description":null}},{"type":"Feature","geometry":{"type":"Point","coordinates":[2.3939434,48.8485301]},"properties":{"osm_id":7707020791,"ref":"PA_515","artist_name":"Invader","artwork_subject":"street_art","description":null}},{"type":"Feature","geometry":{"type":"Point","coordinates":[2.3808929,48.8639242]},"properties":{"osm_id":7707020792,"ref":"PA_1222","artist_name":"Invader","artwork_subject":"street_art","description":null}},{"type":"Feature","geometry":{"type":"Point","coordinates":[2.3753652,48.8652608]},"properties":{"osm_id":7707020793,"ref":"PA_1005","artist_name":"Invader","artwork_subject":"street_art","description":null}},{"type":"Feature","geometry":{"type":"Point","coordinates":[2.4084785,48.8469003]},"properties":{"osm_id":7707020794,"ref":"PA_1225","artist_name":"Invader","artwork_subject":"street_art","description":null}},{"type":"Feature","geometry":{"type":"Point","coordinates":[2.3630043,48.8568077]},"properties":{"osm_id":7707020891,"ref":"PA_682","artist_name":"Invader","artwork_subject":"street_art","description":null}},{"type":"Feature","geometry":{"type":"Point","coordinates":[2.3803962,48.8535058]},"properties":{"osm_id":7707020892,"ref":"PA_886","artist_name":"Invader","artwork_subject":"street_art","description":null}},{"type":"Feature","geometry":{"type":"Point","coordinates":[2.40842,48.8646699]},"properties":{"osm_id":7707020893,"ref":"PA_1066","artist_name":"Invader","artwork_subject":"street_art","description":null}},{"type":"Feature","geometry":{"type":"Point","coordinates":[2.3850274,48.8654193]},"properties":{"osm_id":7707020894,"ref":"PA_1211","artist_name":"Invader","artwork_subject":"street_art","description":null}},{"type":"Feature","geometry":{"type":"Point","coordinates":[2.3371504,48.8622146]},"properties":{"osm_id":7707020895,"ref":"PA_563","artist_name":"Invader","artwork_subject":"street_art","description":"invader bleu clair sur fond marron"}},{"type":"Feature","geometry":{"type":"Point","coordinates":[2.3285694,48.8748162]},"properties":{"osm_id":7707020896,"ref":"PA_1181","artist_name":"Invader","artwork_subject":"street_art","description":null}},{"type":"Feature","geometry":{"type":"Point","coordinates":[2.3383604,48.8686819]},"properties":{"osm_id":7707020897,"ref":"PA_1008","artist_name":"Invader","artwork_subject":"street_art","description":null}},{"type":"Feature","geometry":{"type":"Point","coordinates":[2.3401943,48.8688069]},"properties":{"osm_id":7707020898,"ref":"PA_1177","artist_name":"Invader","artwork_subject":"street_art","description":null}},{"type":"Feature","geometry":{"type":"Point","coordinates":[2.3436637,48.8682638]},"properties":{"osm_id":7707020899,"ref":"PA_976","artist_name":"Invader","artwork_subject":"street_art","description":null}},{"type":"Feature","geometry":{"type":"Point","coordinates":[2.4082139,48.8469202]},"properties":{"osm_id":7707020900,"ref":"PA_1226","artist_name":"Invader","artwork_subject":"street_art","description":null}},{"type":"Feature","geometry":{"type":"Point","coordinates":[2.3366452,48.8654342]},"properties":{"osm_id":7707020903,"ref":"PA_1100","artist_name":"Invader","artwork_subject":"street_art","description":null}},{"type":"Feature","geometry":{"type":"Point","coordinates":[2.3855101,48.850374]},"properties":{"osm_id":7707020989,"ref":"PA_1336","artist_name":"Invader","artwork_subject":"street_art","description":null}},{"type":"Feature","geometry":{"type":"Point","coordinates":[2.4086062,48.8468876]},"properties":{"osm_id":7707020990,"ref":"PA_82","artist_name":"Invader","artwork_subject":"street_art","description":null}},{"type":"Feature","geometry":{"type":"Point","coordinates":[2.369246,48.8595839]},"properties":{"osm_id":7707020991,"ref":"PA_1424","artist_name":"Invader","artwork_subject":"street_art","description":null}},{"type":"Feature","geometry":{"type":"Point","coordinates":[2.3495241,48.8430849]},"properties":{"osm_id":7707020992,"ref":"PA_1338","artist_name":"Invader","artwork_subject":"street_art","description":null}},{"type":"Feature","geometry":{"type":"Point","coordinates":[2.383656,48.847233]},"properties":{"osm_id":7707020993,"ref":"PA_1420","artist_name":"Invader","artwork_subject":"street_art","description":null}},{"type":"Feature","geometry":{"type":"Point","coordinates":[2.3071864,48.8413567]},"properties":{"osm_id":7707020994,"ref":"PA_1445","artist_name":"Invader","artwork_subject":"street_art","description":null}},{"type":"Feature","geometry":{"type":"Point","coordinates":[2.3398238,48.8613442]},"properties":{"osm_id":7707021587,"ref":"PA_860","artist_name":"Invader","artwork_subject":"street_art","description":"Space invader avec avant le I en blanc sur un fond vert encadré de bleu"}},{"type":"Feature","geometry":{"type":"Point","coordinates":[2.3511531,48.8595353]},"properties":{"osm_id":7707021687,"ref":"PA_1432","artist_name":"Invader","artwork_subject":"street_art","description":"mosaic géante d'un space invader blanc entouré de noir avec des yeux rouge"}},{"type":"Feature","geometry":{"type":"Point","coordinates":[2.3409678,48.8607481]},"properties":{"osm_id":7707021785,"ref":"PA_1260","artist_name":"Invader","artwork_subject":"street_art","description":null}},{"type":"Feature","geometry":{"type":"Point","coordinates":[2.344688,48.8504185]},"properties":{"osm_id":7707061185,"ref":"PA_1444","artist_name":"Invader","artwork_subject":"street_art","description":null}},{"type":"Feature","geometry":{"type":"Point","coordinates":[2.3466627,48.8521549]},"properties":{"osm_id":7707121385,"ref":"PA_1441","artist_name":"Invader","artwork_subject":"street_art","description":null}},{"type":"Feature","geometry":{"type":"Point","coordinates":[2.2965485,48.8631404]},"properties":{"osm_id":7707145586,"ref":"PA_1442","artist_name":"Invader","artwork_subject":"street_art","description":"un invader blanc contour noir sur un carré avec en fond un soleil sortant de l'eau"}},{"type":"Feature","geometry":{"type":"Point","coordinates":[2.3181493,48.8444474]},"properties":{"osm_id":7707146985,"ref":"PA_1446","artist_name":"Invader","artwork_subject":"street_art","description":null}},{"type":"Feature","geometry":{"type":"Point","coordinates":[2.3365252,48.8668787]},"properties":{"osm_id":7707392689,"ref":"PA_1058","artist_name":"Invader","artwork_subject":"street_art","description":null}},{"type":"Feature","geometry":{"type":"Point","coordinates":[2.3453858,48.8648355]},"properties":{"osm_id":7707392690,"ref":"PA_1062","artist_name":"Invader","artwork_subject":"street_art","description":null}},{"type":"Feature","geometry":{"type":"Point","coordinates":[2.3454431,48.8648402]},"properties":{"osm_id":7707392691,"ref":"PA_1057","artist_name":"Invader","artwork_subject":"street_art","description":null}},{"type":"Feature","geometry":{"type":"Point","coordinates":[2.3454224,48.8648381]},"properties":{"osm_id":7707392692,"ref":"PA_470","artist_name":"Invader","artwork_subject":"street_art","description":null}},{"type":"Feature","geometry":{"type":"Point","coordinates":[2.3810534,48.8577634]},"properties":{"osm_id":7707392693,"ref":"PA_999","artist_name":"Invader","artwork_subject":"street_art","description":null}},{"type":"Feature","geometry":{"type":"Point","coordinates":[2.3801958,48.858595]},"properties":{"osm_id":7707396686,"ref":"PA_719","artist_name":"Invader","artwork_subject":"street_art","description":null}},{"type":"Feature","geometry":{"type":"Point","coordinates":[2.3728742,48.8664492]},"properties":{"osm_id":7707418586,"ref":"PA_1277","artist_name":"Invader","artwork_subject":"street_art","description":null}},{"type":"Feature","geometry":{"type":"Point","coordinates":[2.3584765,48.83593]},"properties":{"osm_id":7707580985,"ref":"PA_1293","artist_name":"Invader","artwork_subject":"street_art","description":null}},{"type":"Feature","geometry":{"type":"Point","coordinates":[2.3503856,48.8441544]},"properties":{"osm_id":7711142385,"ref":"PA_1189","artist_name":"Invader","artwork_subject":"street_art","description":null}},{"type":"Feature","geometry":{"type":"Point","coordinates":[2.3465526,48.8447523]},"properties":{"osm_id":7713402287,"ref":"PA_765","artist_name":"Invader","artwork_subject":"street_art","description":null}},{"type":"Feature","geometry":{"type":"Point","coordinates":[2.347607,48.8506382]},"properties":{"osm_id":7713455285,"ref":"PA_528","artist_name":"Invader","artwork_subject":"street_art","description":null}},{"type":"Feature","geometry":{"type":"Point","coordinates":[2.3620131,48.8602542]},"properties":{"osm_id":7713475385,"ref":"PA_74","artist_name":"Invader","artwork_subject":"street_art","description":null}},{"type":"Feature","geometry":{"type":"Point","coordinates":[2.3888616,48.8593429]},"properties":{"osm_id":7713479988,"ref":"PA_1243","artist_name":"Invader","artwork_subject":"street_art","description":null}},{"type":"Feature","geometry":{"type":"Point","coordinates":[2.401436,48.8681311]},"properties":{"osm_id":7713495185,"ref":"PA_648","artist_name":"Invader","artwork_subject":"street_art","description":null}},{"type":"Feature","geometry":{"type":"Point","coordinates":[2.3612601,48.8533183]},"properties":{"osm_id":7713522585,"ref":"PA_1152","artist_name":"Invader","artwork_subject":"street_art","description":null}},{"type":"Feature","geometry":{"type":"Point","coordinates":[2.3394672,48.8731823]},"properties":{"osm_id":7713523486,"ref":"PA_1124","artist_name":"Invader","artwork_subject":"street_art","description":null}},{"type":"Feature","geometry":{"type":"Point","coordinates":[2.3863477,48.8528901]},"properties":{"osm_id":7713563489,"ref":"PA_415","artist_name":"Invader","artwork_subject":"street_art","description":null}},{"type":"Feature","geometry":{"type":"Point","coordinates":[2.3893014,48.852519]},"properties":{"osm_id":7713593485,"ref":"PA_1098","artist_name":"Invader","artwork_subject":"street_art","description":null}},{"type":"Feature","geometry":{"type":"Point","coordinates":[2.384131,48.8500369]},"properties":{"osm_id":7713600785,"ref":"PA_1024","artist_name":"Invader","artwork_subject":"street_art","description":null}},{"type":"Feature","geometry":{"type":"Point","coordinates":[2.3370952,48.8688272]},"properties":{"osm_id":7713611886,"ref":"PA_894","artist_name":"Invader","artwork_subject":"street_art","description":"Au 11"}},{"type":"Feature","geometry":{"type":"Point","coordinates":[2.335966,48.8664796]},"properties":{"osm_id":7713624886,"ref":"PA_1140","artist_name":"Invader","artwork_subject":"street_art","description":null}},{"type":"Feature","geometry":{"type":"Point","coordinates":[2.3377562,48.8688466]},"properties":{"osm_id":7713627085,"ref":"PA_1210","artist_name":"Invader","artwork_subject":"street_art","description":null}},{"type":"Feature","geometry":{"type":"Point","coordinates":[2.3280519,48.8954941]},"properties":{"osm_id":7713648586,"ref":"PA_1377","artist_name":"Invader","artwork_subject":"street_art","description":null}},{"type":"Feature","geometry":{"type":"Point","coordinates":[2.3915772,48.8432601]},"properties":{"osm_id":7713658285,"ref":"PA_554","artist_name":"Invader","artwork_subject":"street_art","description":null}},{"type":"Feature","geometry":{"type":"Point","coordinates":[2.3601774,48.8522532]},"properties":{"osm_id":7713660088,"ref":"PA_816","artist_name":"Invader","artwork_subject":"street_art","description":"space invader de couleur vert sombre suite carré vert clair"}},{"type":"Feature","geometry":{"type":"Point","coordinates":[2.3986708,48.848553]},"properties":{"osm_id":7713668585,"ref":"PA_1070","artist_name":"Invader","artwork_subject":"street_art","description":null}},{"type":"Feature","geometry":{"type":"Point","coordinates":[2.3523707,48.8589122]},"properties":{"osm_id":7726523486,"ref":"PA_612","artist_name":"Invader","artwork_subject":"street_art","description":null}},{"type":"Feature","geometry":{"type":"Point","coordinates":[2.3494465,48.8636806]},"properties":{"osm_id":7726526485,"ref":"PA_590","artist_name":"Invader","artwork_subject":"street_art","description":null}},{"type":"Feature","geometry":{"type":"Point","coordinates":[2.3525312,48.8597776]},"properties":{"osm_id":7726534585,"ref":"PA_1081","artist_name":"Invader","artwork_subject":"street_art","description":null}},{"type":"Feature","geometry":{"type":"Point","coordinates":[2.3525338,48.8598021]},"properties":{"osm_id":7726535385,"ref":"PA_587","artist_name":"Invader","artwork_subject":"street_art","description":null}},{"type":"Feature","geometry":{"type":"Point","coordinates":[2.3525193,48.8597488]},"properties":{"osm_id":7726536785,"ref":"PA_109","artist_name":"Invader","artwork_subject":"street_art","description":null}},{"type":"Feature","geometry":{"type":"Point","coordinates":[2.3519322,48.8586045]},"properties":{"osm_id":7726537685,"ref":"PA_815","artist_name":"Invader","artwork_subject":"street_art","description":null}},{"type":"Feature","geometry":{"type":"Point","coordinates":[2.278271,48.8364374]},"properties":{"osm_id":7726547985,"ref":"PA_593","artist_name":"Invader","artwork_subject":"street_art","description":null}},{"type":"Feature","geometry":{"type":"Point","coordinates":[2.2986824,48.878461]},"properties":{"osm_id":8601422417,"ref":"PA_1159","artist_name":"Invader","artwork_subject":"street_art","description":"smiley"}},{"type":"Feature","geometry":{"type":"Point","coordinates":[2.3004068,48.8867316]},"properties":{"osm_id":8601422418,"ref":"PA_1168","artist_name":"Invader","artwork_subject":"street_art","description":null}},{"type":"Feature","geometry":{"type":"Point","coordinates":[2.3016265,48.8832989]},"properties":{"osm_id":8601422419,"ref":"PA_1202","artist_name":"Invader","artwork_subject":"street_art","description":"bleu nuit"}},{"type":"Feature","geometry":{"type":"Point","coordinates":[2.303676,48.8851509]},"properties":{"osm_id":8601422617,"ref":"PA_1164","artist_name":"Invader","artwork_subject":"street_art","description":"pirate"}},{"type":"Feature","geometry":{"type":"Point","coordinates":[2.2916055,48.879438]},"properties":{"osm_id":8601422917,"ref":"PA_1251","artist_name":"Invader","artwork_subject":"street_art","description":"bourse au dessus d'Allianz"}},{"type":"Feature","geometry":{"type":"Point","coordinates":[2.3051356,48.8940151]},"properties":{"osm_id":8601493217,"ref":"PA_1284","artist_name":"Invader","artwork_subject":"street_art","description":"rouge dans jaune periph, sur le pon"}},{"type":"Feature","geometry":{"type":"Point","coordinates":[2.3180065,48.8911216]},"properties":{"osm_id":8601493317,"ref":"PA_1398","artist_name":"Invader","artwork_subject":"street_art","description":"vert"}},{"type":"Feature","geometry":{"type":"Point","coordinates":[2.2959329,48.8867377]},"properties":{"osm_id":8601493318,"ref":"PA_1367","artist_name":"Invader","artwork_subject":"street_art","description":"noir avec rayons"}},{"type":"Feature","geometry":{"type":"Point","coordinates":[2.3034317,48.8901189]},"properties":{"osm_id":8601493319,"ref":"PA_1396","artist_name":"Invader","artwork_subject":"street_art","description":"pharmacie"}},{"type":"Feature","geometry":{"type":"Point","coordinates":[2.3195472,48.8891589]},"properties":{"osm_id":8601493617,"ref":"PA_1394","artist_name":"Invader","artwork_subject":"street_art","description":"fruits"}},{"type":"Feature","geometry":{"type":"Point","coordinates":[2.3029691,48.8851665]},"properties":{"osm_id":8601669219,"ref":"PA_661","artist_name":"Invader","artwork_subject":"street_art","description":null}},{"type":"Feature","geometry":{"type":"Point","coordinates":[2.288183,48.8777989]},"properties":{"osm_id":8601669220,"ref":"PA_616","artist_name":"Invader","artwork_subject":"street_art","description":"rue brunel"}},{"type":"Feature","geometry":{"type":"Point","coordinates":[2.3137036,48.8869701]},"properties":{"osm_id":8601675017,"ref":"PA_1406","artist_name":"Invader","artwork_subject":"street_art","description":"vase à droite du lcl"}},{"type":"Feature","geometry":{"type":"Point","coordinates":[2.3070426,48.8880112]},"properties":{"osm_id":8601675018,"ref":"PA_1412","artist_name":"Invader","artwork_subject":"street_art","description":"beige marron"}},{"type":"Feature","geometry":{"type":"Point","coordinates":[2.3085821,48.8805745]},"properties":{"osm_id":8601675019,"ref":"PA_474","artist_name":"Invader","artwork_subject":"street_art","description":null}},{"type":"Feature","geometry":{"type":"Point","coordinates":[2.2925186,48.8762724]},"properties":{"osm_id":8601675118,"ref":"PA_429","artist_name":"Invader","artwork_subject":"street_art","description":"blanc à côté du panneau carnot"}},{"type":"Feature","geometry":{"type":"Point","coordinates":[2.3153774,48.8813542]},"properties":{"osm_id":8601675417,"ref":"PA_387","artist_name":"Invader","artwork_subject":"street_art","description":"boîte aux lettres"}},{"type":"Feature","geometry":{"type":"Point","coordinates":[2.2931291,48.8745854]},"properties":{"osm_id":8601675418,"ref":"PA_475","artist_name":"Invader","artwork_subject":"street_art","description":"AVENUE DE LA GRANDE ARMÉE"}},{"type":"Feature","geometry":{"type":"Point","coordinates":[2.2922308,48.8771903]},"properties":{"osm_id":8601675419,"ref":"PA_664","artist_name":"Invader","artwork_subject":"street_art","description":"maison hardel"}},{"type":"Feature","geometry":{"type":"Point","coordinates":[2.3120265,48.880958]},"properties":{"osm_id":8601810626,"ref":"PA_867","artist_name":"Invader","artwork_subject":"street_art","description":null}},{"type":"Feature","geometry":{"type":"Point","coordinates":[2.318633,48.8864185]},"properties":{"osm_id":8601941820,"ref":"PA_995","artist_name":"Invader","artwork_subject":"street_art","description":"au dessus de la boulangerie"}},{"type":"Feature","geometry":{"type":"Point","coordinates":[2.3102766,48.8966401]},"properties":{"osm_id":8601942019,"ref":"PA_994","artist_name":"Invader","artwork_subject":"street_art","description":"sous le pont, près des vélibs"}},{"type":"Feature","geometry":{"type":"Point","coordinates":[2.308273,48.9332708]},"properties":{"osm_id":8608680317,"ref":"PA_1435","artist_name":"Invader","artwork_subject":"street_art","description":null}},{"type":"Feature","geometry":{"type":"Point","coordinates":[2.4026892,48.8820762]},"properties":{"osm_id":8608680318,"ref":"PA_1187","artist_name":"Invader","artwork_subject":"street_art","description":"rouge gros, mur en face mairie"}},{"type":"Feature","geometry":{"type":"Point","coordinates":[2.3795188,48.8462927]},"properties":{"osm_id":8610102017,"ref":"PA_1461","artist_name":"Invader","artwork_subject":"street_art","description":null}},{"type":"Feature","geometry":{"type":"Point","coordinates":[2.3405939,48.8863268]},"properties":{"osm_id":8610102317,"ref":"PA_1276","artist_name":"Invader","artwork_subject":"street_art","description":"au-dessus d'un shop Montmarte et ses envies"}},{"type":"Feature","geometry":{"type":"Point","coordinates":[2.3413195,48.8865107]},"properties":{"osm_id":8610102417,"ref":"PA_856","artist_name":"Invader","artwork_subject":"street_art","description":"bleu avec graffiti sur fond blanc à côté d'une borne historique"}},{"type":"Feature","geometry":{"type":"Point","coordinates":[2.3405585,48.8863125]},"properties":{"osm_id":8610102517,"ref":"PA_857","artist_name":"Invader","artwork_subject":"street_art","description":"bleu, haut panneua place du tertre à droite de la galerie Montmartre"}},{"type":"Feature","geometry":{"type":"Point","coordinates":[2.3445436,48.8874845]},"properties":{"osm_id":8610144418,"ref":"PA_286","artist_name":"Invader","artwork_subject":"street_art","description":"petit blanc par terre sous escaliers montmartre"}},{"type":"Feature","geometry":{"type":"Point","coordinates":[2.3413395,48.8885508]},"properties":{"osm_id":8610181717,"ref":"PA_18","artist_name":"Invader","artwork_subject":"street_art","description":"Mur blanc"}},{"type":"Feature","geometry":{"type":"Point","coordinates":[2.3424291,48.8843889]},"properties":{"osm_id":8610181718,"ref":"PA_605","artist_name":"Invader","artwork_subject":"street_art","description":"Vert mouche paris au dessus panneau"}},{"type":"Feature","geometry":{"type":"Point","coordinates":[2.3380655,48.885627]},"properties":{"osm_id":8610181817,"ref":"PA_66","artist_name":"Invader","artwork_subject":"street_art","description":"trois petits sous le panneau de la rue des 3 frères"}},{"type":"Feature","geometry":{"type":"Point","coordinates":[2.3384403,48.8866339]},"properties":{"osm_id":8610686417,"ref":"PA_639","artist_name":"Invader","artwork_subject":"street_art","description":"Petit trop beau au coin de la rue en haut à côté d'un volet"}},{"type":"Feature","geometry":{"type":"Point","coordinates":[2.3396401,48.8841444]},"properties":{"osm_id":8610686618,"ref":"PA_161","artist_name":"Invader","artwork_subject":"street_art","description":null}},{"type":"Feature","geometry":{"type":"Point","coordinates":[2.3441855,48.8862448]},"properties":{"osm_id":8610686619,"ref":"PA_644","artist_name":"Invader","artwork_subject":"street_art","description":"trois invaders avant escaliers"}},{"type":"Feature","geometry":{"type":"Point","coordinates":[2.3402534,48.887649]},"properties":{"osm_id":8610686620,"ref":"PA_165","artist_name":"Invader","artwork_subject":"street_art","description":"petit bonhomme blanc sur mur pierre"}},{"type":"Feature","geometry":{"type":"Point","coordinates":[2.3406844,48.8853664]},"properties":{"osm_id":8610686717,"ref":"PA_160","artist_name":"Invader","artwork_subject":"street_art","description":"petit invader noir sur fond rouge au dessu du panneau de nom de rue"}},{"type":"Feature","geometry":{"type":"Point","coordinates":[2.3385682,48.8860004]},"properties":{"osm_id":8610686817,"ref":"PA_642","artist_name":"Invader","artwork_subject":"street_art","description":"au-dessus panneau rue"}},{"type":"Feature","geometry":{"type":"Point","coordinates":[2.3412935,48.8861461]},"properties":{"osm_id":8610817517,"ref":"PA_170","artist_name":"Invader","artwork_subject":"street_art","description":"Grand invader blanc avec des yeux noir suivie de trois . à côté du panneau Rue Saint-Éleuthère"}},{"type":"Feature","geometry":{"type":"Point","coordinates":[2.3414642,48.8863818]},"properties":{"osm_id":8610817618,"ref":"PA_169","artist_name":"Invader","artwork_subject":"street_art","description":"orange sur fond bleu, sur pierres à droite"}},{"type":"Feature","geometry":{"type":"Point","coordinates":[2.3388636,48.8841265]},"properties":{"osm_id":8610817717,"ref":"PA_1053","artist_name":"Invader","artwork_subject":"street_art","description":"au-dessus de la Poste de la Place des Abesses"}},{"type":"Feature","geometry":{"type":"Point","coordinates":[2.3349912,48.8856785]},"properties":{"osm_id":8610817818,"ref":"PA_1077","artist_name":"Invader","artwork_subject":"street_art","description":"en haut de l'immeuble derrière le café"}},{"type":"Feature","geometry":{"type":"Point","coordinates":[2.3601127,48.8257143]},"properties":{"osm_id":8617557620,"ref":"PA_1352","artist_name":"Invader","artwork_subject":"street_art","description":null}},{"type":"Feature","geometry":{"type":"Point","coordinates":[2.3627374,48.8238769]},"properties":{"osm_id":8617575418,"ref":"PA_667","artist_name":"Invader","artwork_subject":"street_art","description":"au coin, rouge petit hauteur"}},{"type":"Feature","geometry":{"type":"Point","coordinates":[2.3637636,48.8264594]},"properties":{"osm_id":8617575517,"ref":"PA_876","artist_name":"Invader","artwork_subject":"street_art","description":"Esj"}},{"type":"Feature","geometry":{"type":"Point","coordinates":[2.3733177,48.8195264]},"properties":{"osm_id":8617575617,"ref":"PA_225","artist_name":"Invader","artwork_subject":"street_art","description":"pont après auto bilan"}},{"type":"Feature","geometry":{"type":"Point","coordinates":[2.3622934,48.824908]},"properties":{"osm_id":8617575618,"ref":"PA_1316","artist_name":"Invader","artwork_subject":"street_art","description":"palais d'Asie"}},{"type":"Feature","geometry":{"type":"Point","coordinates":[2.3560539,48.8844114]},"properties":{"osm_id":8621915017,"ref":"PA_854","artist_name":"Invader","artwork_subject":"street_art","description":null}},{"type":"Feature","geometry":{"type":"Point","coordinates":[2.3534148,48.8902881]},"properties":{"osm_id":8621915019,"ref":"PA_336","artist_name":"Invader","artwork_subject":"street_art","description":"dispensaire marcadet"}},{"type":"Feature","geometry":{"type":"Point","coordinates":[2.3586336,48.8996238]},"properties":{"osm_id":8621915020,"ref":"PA_907","artist_name":"Invader","artwork_subject":"street_art","description":"rouge direction Paris droite pont"}},{"type":"Feature","geometry":{"type":"Point","coordinates":[2.366163,48.900654]},"properties":{"osm_id":8621915021,"ref":"PA_1408","artist_name":"Invader","artwork_subject":"street_art","description":"bretelle sortie gros vert"}},{"type":"Feature","geometry":{"type":"Point","coordinates":[2.3499208,48.885629]},"properties":{"osm_id":8621915117,"ref":"PA_1233","artist_name":"Invader","artwork_subject":"street_art","description":"au dessus de sport vintage"}},{"type":"Feature","geometry":{"type":"Point","coordinates":[2.3535369,48.898262]},"properties":{"osm_id":8621915217,"ref":"PA_669","artist_name":"Invader","artwork_subject":"street_art","description":"sortie du 18e, milieu pont"}},{"type":"Feature","geometry":{"type":"Point","coordinates":[2.3593736,48.8987739]},"properties":{"osm_id":8621915317,"ref":"PA_1169","artist_name":"Invader","artwork_subject":"street_art","description":"fleur en pot pont côté droit direction Nord"}},{"type":"Feature","geometry":{"type":"Point","coordinates":[2.3121312,48.8838214]},"properties":{"osm_id":8621915417,"ref":"PA_662","artist_name":"Invader","artwork_subject":"street_art","description":null}},{"type":"Feature","geometry":{"type":"Point","coordinates":[2.3274319,48.8835169]},"properties":{"osm_id":8621915517,"ref":"PA_206","artist_name":"Invader","artwork_subject":"street_art","description":"petit rouge sur statue"}},{"type":"Feature","geometry":{"type":"Point","coordinates":[2.3043658,48.8325565]},"properties":{"osm_id":8634369117,"ref":"PA_1447","artist_name":"Invader","artwork_subject":"street_art","description":null}},{"type":"Feature","geometry":{"type":"Point","coordinates":[2.334171,48.849073]},"properties":{"osm_id":8634450018,"ref":"PA_592","artist_name":"Invader","artwork_subject":"street_art","description":"orange fond vert"}},{"type":"Feature","geometry":{"type":"Point","coordinates":[2.3344424,48.852509]},"properties":{"osm_id":8634450019,"ref":"PA_1190","artist_name":"Invader","artwork_subject":"street_art","description":"princesse leila"}},{"type":"Feature","geometry":{"type":"Point","coordinates":[2.3380763,48.8514226]},"properties":{"osm_id":8634450217,"ref":"PA_473","artist_name":"Invader","artwork_subject":"street_art","description":"coin resto, hauteur"}},{"type":"Feature","geometry":{"type":"Point","coordinates":[2.3396665,48.8510083]},"properties":{"osm_id":8634450218,"ref":"PA_229","artist_name":"Invader","artwork_subject":"street_art","description":null}},{"type":"Feature","geometry":{"type":"Point","coordinates":[2.3371193,48.8520874]},"properties":{"osm_id":8634450219,"ref":"PA_1337","artist_name":"Invader","artwork_subject":"street_art","description":"rock n roll"}},{"type":"Feature","geometry":{"type":"Point","coordinates":[2.3364542,48.8524212]},"properties":{"osm_id":8634450220,"ref":"PA_1076","artist_name":"Invader","artwork_subject":"street_art","description":"pastèque marché"}},{"type":"Feature","geometry":{"type":"Point","coordinates":[2.3485168,48.8488866]},"properties":{"osm_id":8634450221,"ref":"PA_03","artist_name":"Invader","artwork_subject":"street_art","description":"Hôtel du commerce"}},{"type":"Feature","geometry":{"type":"Point","coordinates":[2.332819,48.8487271]},"properties":{"osm_id":8634450317,"ref":"PA_322","artist_name":"Invader","artwork_subject":"street_art","description":"petit vert coin rue"}},{"type":"Feature","geometry":{"type":"Point","coordinates":[2.3478036,48.8468674]},"properties":{"osm_id":8634454917,"ref":"PA_1171","artist_name":"Invader","artwork_subject":"street_art","description":null}},{"type":"Feature","geometry":{"type":"Point","coordinates":[2.347071,48.8526111]},"properties":{"osm_id":8634454918,"ref":"PA_1200","artist_name":"Invader","artwork_subject":"street_art","description":null}},{"type":"Feature","geometry":{"type":"Point","coordinates":[2.3450535,48.8496608]},"properties":{"osm_id":8634513919,"ref":"PA_1407","artist_name":"Invader","artwork_subject":"street_art","description":"au vieux campeur"}},{"type":"Feature","geometry":{"type":"Point","coordinates":[2.3481972,48.8471638]},"properties":{"osm_id":8634514017,"ref":"PA_40","artist_name":"Invader","artwork_subject":"street_art","description":"hauteur rouge abîmé"}},{"type":"Feature","geometry":{"type":"Point","coordinates":[2.3486524,48.8517207]},"properties":{"osm_id":8634514018,"ref":"PA_556","artist_name":"Invader","artwork_subject":"street_art","description":"i love Paris"}},{"type":"Feature","geometry":{"type":"Point","coordinates":[2.3464784,48.852772]},"properties":{"osm_id":8634514118,"ref":"PA_1087","artist_name":"Invader","artwork_subject":"street_art","description":"Pingouin"}},{"type":"Feature","geometry":{"type":"Point","coordinates":[2.3456652,48.853034]},"properties":{"osm_id":8634514217,"ref":"PA_874","artist_name":"Invader","artwork_subject":"street_art","description":null}},{"type":"Feature","geometry":{"type":"Point","coordinates":[2.3490423,48.8462219]},"properties":{"osm_id":8634637318,"ref":"PA_157","artist_name":"Invader","artwork_subject":"street_art","description":"côté en face LLG"}},{"type":"Feature","geometry":{"type":"Point","coordinates":[2.3419289,48.8457334]},"properties":{"osm_id":8634637319,"ref":"PA_1358","artist_name":"Invader","artwork_subject":"street_art","description":"bleu qui saute, haut mur"}},{"type":"Feature","geometry":{"type":"Point","coordinates":[2.3479872,48.851045]},"properties":{"osm_id":8634648819,"ref":"PA_1086","artist_name":"Invader","artwork_subject":"street_art","description":"fiole"}},{"type":"Feature","geometry":{"type":"Point","coordinates":[2.3420433,48.8489503]},"properties":{"osm_id":8634661917,"ref":"PA_1359","artist_name":"Invader","artwork_subject":"street_art","description":"en face du kiosque"}},{"type":"Feature","geometry":{"type":"Point","coordinates":[2.3447848,48.8524382]},"properties":{"osm_id":8634661918,"ref":"PA_1380","artist_name":"Invader","artwork_subject":"street_art","description":null}},{"type":"Feature","geometry":{"type":"Point","coordinates":[2.3406547,48.8658095]},"properties":{"osm_id":8640114020,"ref":"PA_775","artist_name":"Invader","artwork_subject":"street_art","description":null}},{"type":"Feature","geometry":{"type":"Point","coordinates":[2.332726,48.8644772]},"properties":{"osm_id":8640130017,"ref":"PA_893","artist_name":"Invader","artwork_subject":"street_art","description":"space invader bleu sur fond noir"}},{"type":"Feature","geometry":{"type":"Point","coordinates":[2.3487141,48.8620507]},"properties":{"osm_id":8646420217,"ref":"PA_1162","artist_name":"Invader","artwork_subject":"street_art","description":"gros schtroumpf"}},{"type":"Feature","geometry":{"type":"Point","coordinates":[2.3473435,48.8603348]},"properties":{"osm_id":8646478418,"ref":"PA_92","artist_name":"Invader","artwork_subject":"street_art","description":"Rouge panneau ferronerie"}},{"type":"Feature","geometry":{"type":"Point","coordinates":[2.3491154,48.8636568]},"properties":{"osm_id":8646603818,"ref":"PA_840","artist_name":"Invader","artwork_subject":"street_art","description":"Rue pierre lescot"}},{"type":"Feature","geometry":{"type":"Point","coordinates":[2.342403,48.8609438]},"properties":{"osm_id":8646604017,"ref":"PA_819","artist_name":"Invader","artwork_subject":"street_art","description":null}},{"type":"Feature","geometry":{"type":"Point","coordinates":[2.3448756,48.8637999]},"properties":{"osm_id":8646604117,"ref":"PA_295","artist_name":"Invader","artwork_subject":"street_art","description":null}},{"type":"Feature","geometry":{"type":"Point","coordinates":[2.3475351,48.8601975]},"properties":{"osm_id":8646604118,"ref":"PA_720","artist_name":"Invader","artwork_subject":"street_art","description":"cactus habillé"}},{"type":"Feature","geometry":{"type":"Point","coordinates":[2.3445726,48.8636344]},"properties":{"osm_id":8646604119,"ref":"PA_60","artist_name":"Invader","artwork_subject":"street_art","description":null}},{"type":"Feature","geometry":{"type":"Point","coordinates":[2.3404887,48.8635032]},"properties":{"osm_id":8646604217,"ref":"PA_1262","artist_name":"Invader","artwork_subject":"street_art","description":"Dr Mario."}},{"type":"Feature","geometry":{"type":"Point","coordinates":[2.348746,48.8629145]},"properties":{"osm_id":8646604218,"ref":"PA_839","artist_name":"Invader","artwork_subject":"street_art","description":"Panneau"}},{"type":"Feature","geometry":{"type":"Point","coordinates":[2.3455647,48.8605812]},"properties":{"osm_id":8646621049,"ref":"PA_1030","artist_name":"Invader","artwork_subject":"street_art","description":"gros multicolore"}},{"type":"Feature","geometry":{"type":"Point","coordinates":[2.3442597,48.8612057]},"properties":{"osm_id":8646623719,"ref":"PA_1034","artist_name":"Invader","artwork_subject":"street_art","description":null}},{"type":"Feature","geometry":{"type":"Point","coordinates":[2.3460737,48.86605]},"properties":{"osm_id":8647520719,"ref":"PA_285","artist_name":"Invader","artwork_subject":"street_art","description":null}},{"type":"Feature","geometry":{"type":"Point","coordinates":[2.349221,48.8668926]},"properties":{"osm_id":8647520818,"ref":"PA_506","artist_name":"Invader","artwork_subject":"street_art","description":"petit coin gauche du trottoir milieu face aux toilettes"}},{"type":"Feature","geometry":{"type":"Point","coordinates":[2.3434747,48.8657975]},"properties":{"osm_id":8647526517,"ref":"PA_800","artist_name":"Invader","artwork_subject":"street_art","description":null}},{"type":"Feature","geometry":{"type":"Point","coordinates":[2.3469392,48.8659355]},"properties":{"osm_id":8647526518,"ref":"PA_468","artist_name":"Invader","artwork_subject":"street_art","description":null}},{"type":"Feature","geometry":{"type":"Point","coordinates":[2.3476666,48.8645395]},"properties":{"osm_id":8647682317,"ref":"PA_232","artist_name":"Invader","artwork_subject":"street_art","description":null}},{"type":"Feature","geometry":{"type":"Point","coordinates":[2.3474031,48.8651034]},"properties":{"osm_id":8647682417,"ref":"PA_1373","artist_name":"Invader","artwork_subject":"street_art","description":"Mouche"}},{"type":"Feature","geometry":{"type":"Point","coordinates":[2.348356,48.8650203]},"properties":{"osm_id":8647682517,"ref":"PA_841","artist_name":"Invader","artwork_subject":"street_art","description":null}},{"type":"Feature","geometry":{"type":"Point","coordinates":[2.3553071,48.864175]},"properties":{"osm_id":8647682617,"ref":"PA_1170","artist_name":"Invader","artwork_subject":"street_art","description":"alice au pays des merveilles"}},{"type":"Feature","geometry":{"type":"Point","coordinates":[2.358014,48.8666695]},"properties":{"osm_id":8647682618,"ref":"PA_1266","artist_name":"Invader","artwork_subject":"street_art","description":null}},{"type":"Feature","geometry":{"type":"Point","coordinates":[2.3548282,48.8639191]},"properties":{"osm_id":8647682817,"ref":"PA_1157","artist_name":"Invader","artwork_subject":"street_art","description":"parabeaubourg"}},{"type":"Feature","geometry":{"type":"Point","coordinates":[2.3525467,48.8662716]},"properties":{"osm_id":8647682818,"ref":"PA_1078","artist_name":"Invader","artwork_subject":"street_art","description":"Fiole poison coin haut"}},{"type":"Feature","geometry":{"type":"Point","coordinates":[2.3442111,48.8651327]},"properties":{"osm_id":8647682917,"ref":"PA_328","artist_name":"Invader","artwork_subject":"street_art","description":"petit coin bas mur 40"}},{"type":"Feature","geometry":{"type":"Point","coordinates":[2.35178,48.8660479]},"properties":{"osm_id":8647807317,"ref":"PA_977","artist_name":"Invader","artwork_subject":"street_art","description":"Coin"}},{"type":"Feature","geometry":{"type":"Point","coordinates":[2.3421477,48.8695396]},"properties":{"osm_id":8647807319,"ref":"PA_404","artist_name":"Invader","artwork_subject":"street_art","description":null}},{"type":"Feature","geometry":{"type":"Point","coordinates":[2.3501772,48.8640046]},"properties":{"osm_id":8647807417,"ref":"PA_998","artist_name":"Invader","artwork_subject":"street_art","description":"peinture rouge haut"}},{"type":"Feature","geometry":{"type":"Point","coordinates":[2.3545257,48.8649825]},"properties":{"osm_id":8647807418,"ref":"PA_1065","artist_name":"Invader","artwork_subject":"street_art","description":"au 59 rue au maire"}},{"type":"Feature","geometry":{"type":"Point","coordinates":[2.3307776,48.8690497]},"properties":{"osm_id":8647807419,"ref":"PA_1333","artist_name":"Invader","artwork_subject":"street_art","description":"breitling"}},{"type":"Feature","geometry":{"type":"Point","coordinates":[2.3561952,48.8688238]},"properties":{"osm_id":8647807517,"ref":"PA_496","artist_name":"Invader","artwork_subject":"street_art","description":"Sur les marches."}},{"type":"Feature","geometry":{"type":"Point","coordinates":[2.3477882,48.868542]},"properties":{"osm_id":8647807518,"ref":"PA_462","artist_name":"Invader","artwork_subject":"street_art","description":null}},{"type":"Feature","geometry":{"type":"Point","coordinates":[2.3535277,48.8647082]},"properties":{"osm_id":8647807617,"ref":"PA_638","artist_name":"Invader","artwork_subject":"street_art","description":"Cube."}},{"type":"Feature","geometry":{"type":"Point","coordinates":[2.3467868,48.8645281]},"properties":{"osm_id":8647807618,"ref":"PA_1395","artist_name":"Invader","artwork_subject":"street_art","description":null}},{"type":"Feature","geometry":{"type":"Point","coordinates":[2.3586327,48.8683549]},"properties":{"osm_id":8647807619,"ref":"PA_1456","artist_name":"Invader","artwork_subject":"street_art","description":"lucky coiffures désactivé"}},{"type":"Feature","geometry":{"type":"Point","coordinates":[2.3488719,48.8680636]},"properties":{"osm_id":8647807717,"ref":"PA_1165","artist_name":"Invader","artwork_subject":"street_art","description":"arabian nights"}},{"type":"Feature","geometry":{"type":"Point","coordinates":[2.3436288,48.8682545]},"properties":{"osm_id":8647807718,"ref":"PA_976","artist_name":"Invader","artwork_subject":"street_art","description":null}},{"type":"Feature","geometry":{"type":"Point","coordinates":[2.351492,48.8668761]},"properties":{"osm_id":8647807817,"ref":"PA_814","artist_name":"Invader","artwork_subject":"street_art","description":"pomme"}},{"type":"Feature","geometry":{"type":"Point","coordinates":[2.3619935,48.8669731]},"properties":{"osm_id":8647808017,"ref":"PA_1347","artist_name":"Invader","artwork_subject":"street_art","description":"sac d'or"}},{"type":"Feature","geometry":{"type":"Point","coordinates":[2.3401723,48.8687968]},"properties":{"osm_id":8647808018,"ref":"PA_1177","artist_name":"Invader","artwork_subject":"street_art","description":null}},{"type":"Feature","geometry":{"type":"Point","coordinates":[2.1306278,48.8059332]},"properties":{"osm_id":8657618317,"ref":"VRS_02","artist_name":"Invader","artwork_subject":"street_art","description":null}},{"type":"Feature","geometry":{"type":"Point","coordinates":[2.1246942,48.8002667]},"properties":{"osm_id":8657618318,"ref":"VRS_08","artist_name":"Invader","artwork_subject":"street_art","description":"Baradoz"}},{"type":"Feature","geometry":{"type":"Point","coordinates":[2.1272648,48.8063177]},"properties":{"osm_id":8657618417,"ref":"VRS_12","artist_name":"Invader","artwork_subject":"street_art","description":null}},{"type":"Feature","geometry":{"type":"Point","coordinates":[2.124234,48.7996061]},"properties":{"osm_id":8657618418,"ref":"VRS_16","artist_name":"Invader","artwork_subject":"street_art","description":"agence de voyage"}},{"type":"Feature","geometry":{"type":"Point","coordinates":[2.1251619,48.8093797]},"properties":{"osm_id":8657618419,"ref":"VRS_17","artist_name":"Invader","artwork_subject":"street_art","description":null}},{"type":"Feature","geometry":{"type":"Point","coordinates":[2.1309009,48.8076276]},"properties":{"osm_id":8657618420,"ref":"VRS_01","artist_name":"Invader","artwork_subject":"street_art","description":null}},{"type":"Feature","geometry":{"type":"Point","coordinates":[2.1303687,48.8054955]},"properties":{"osm_id":8657653817,"ref":"VRS_03","artist_name":"Invader","artwork_subject":"street_art","description":null}},{"type":"Feature","geometry":{"type":"Point","coordinates":[2.1315148,48.8068849]},"properties":{"osm_id":8657653917,"ref":"VRS_04","artist_name":"Invader","artwork_subject":"street_art","description":"Fromagerie le gall"}},{"type":"Feature","geometry":{"type":"Point","coordinates":[2.1532029,48.7984808]},"properties":{"osm_id":8657654017,"ref":"VRS_13","artist_name":"Invader","artwork_subject":"street_art","description":"chandelier"}},{"type":"Feature","geometry":{"type":"Point","coordinates":[2.1284202,48.8006443]},"properties":{"osm_id":8657678518,"ref":"VRS_09","artist_name":"Invader","artwork_subject":"street_art","description":null}},{"type":"Feature","geometry":{"type":"Point","coordinates":[2.1294378,48.8019618]},"properties":{"osm_id":8657690917,"ref":"VRS_06","artist_name":"Invader","artwork_subject":"street_art","description":null}},{"type":"Feature","geometry":{"type":"Point","coordinates":[2.1322227,48.8003243]},"properties":{"osm_id":8657724818,"ref":"VRS_21","artist_name":"Invader","artwork_subject":"street_art","description":null}},{"type":"Feature","geometry":{"type":"Point","coordinates":[2.1253249,48.8012515]},"properties":{"osm_id":8657724917,"ref":"VRS_05","artist_name":"Invader","artwork_subject":"street_art","description":null}},{"type":"Feature","geometry":{"type":"Point","coordinates":[2.1294295,48.8085811]},"properties":{"osm_id":8657862717,"ref":"VRS_07","artist_name":"Invader","artwork_subject":"street_art","description":null}},{"type":"Feature","geometry":{"type":"Point","coordinates":[2.1427618,48.8068149]},"properties":{"osm_id":8657862917,"ref":"VRS_34","artist_name":"Invader","artwork_subject":"street_art","description":"sol"}},{"type":"Feature","geometry":{"type":"Point","coordinates":[2.1253063,48.7987213]},"properties":{"osm_id":8657863017,"ref":"VRS_37","artist_name":"Invader","artwork_subject":"street_art","description":null}},{"type":"Feature","geometry":{"type":"Point","coordinates":[2.3349095,48.8623838]},"properties":{"osm_id":8672733718,"ref":"PA_579","artist_name":"Invader","artwork_subject":"street_art","description":null}},{"type":"Feature","geometry":{"type":"Point","coordinates":[2.3349921,48.8623442]},"properties":{"osm_id":8672779217,"ref":"PA_576","artist_name":"Invader","artwork_subject":"street_art","description":null}},{"type":"Feature","geometry":{"type":"Point","coordinates":[2.3305413,48.8641822]},"properties":{"osm_id":8672779617,"ref":"PA_1151","artist_name":"Invader","artwork_subject":"street_art","description":null}},{"type":"Feature","geometry":{"type":"Point","coordinates":[2.3472922,48.8574941]},"properties":{"osm_id":8672779717,"ref":"PA_143","artist_name":"Invader","artwork_subject":"street_art","description":null}},{"type":"Feature","geometry":{"type":"Point","coordinates":[2.3459134,48.8586592]},"properties":{"osm_id":8675532517,"ref":"PA_354","artist_name":"Invader","artwork_subject":"street_art","description":null}},{"type":"Feature","geometry":{"type":"Point","coordinates":[2.3234299,48.8662192]},"properties":{"osm_id":8675532518,"ref":"PA_152","artist_name":"Invader","artwork_subject":"street_art","description":"métro"}},{"type":"Feature","geometry":{"type":"Point","coordinates":[2.3313251,48.8639455]},"properties":{"osm_id":8675532617,"ref":"PA_360","artist_name":"Invader","artwork_subject":"street_art","description":"orange"}},{"type":"Feature","geometry":{"type":"Point","coordinates":[2.3445958,48.8543653]},"properties":{"osm_id":8675532717,"ref":"PA_394","artist_name":"Invader","artwork_subject":"street_art","description":"Rive tribunal droite pont"}},{"type":"Feature","geometry":{"type":"Point","coordinates":[2.3303644,48.8657903]},"properties":{"osm_id":8675601217,"ref":"PA_736","artist_name":"Invader","artwork_subject":"street_art","description":"invader bleu"}},{"type":"Feature","geometry":{"type":"Point","coordinates":[2.3247928,48.8681001]},"properties":{"osm_id":8675601218,"ref":"PA_952","artist_name":"Invader","artwork_subject":"street_art","description":null}},{"type":"Feature","geometry":{"type":"Point","coordinates":[2.3251615,48.8660921]},"properties":{"osm_id":8675601317,"ref":"PA_843","artist_name":"Invader","artwork_subject":"street_art","description":"invadeur blanc dans un carré bleu sur le poteau du batiment"}},{"type":"Feature","geometry":{"type":"Point","coordinates":[2.330833,48.8653988]},"properties":{"osm_id":8675601417,"ref":"PA_177","artist_name":"Invader","artwork_subject":"street_art","description":"Space invader rose dans fond bleu"}},{"type":"Feature","geometry":{"type":"Point","coordinates":[2.3459272,48.8596707]},"properties":{"osm_id":8675601418,"ref":"PA_1283","artist_name":"Invader","artwork_subject":"street_art","description":"grand space invader blanc sur fond degrade noir et bleu"}},{"type":"Feature","geometry":{"type":"Point","coordinates":[2.3508086,48.8609289]},"properties":{"osm_id":8675613817,"ref":"PA_436","artist_name":"Invader","artwork_subject":"street_art","description":"Dans la cour de agnes b"}},{"type":"Feature","geometry":{"type":"Point","coordinates":[2.3501162,48.8602948]},"properties":{"osm_id":8675765017,"ref":"PA_273","artist_name":"Invader","artwork_subject":"street_art","description":"une poubelle sur fond blanc"}},{"type":"Feature","geometry":{"type":"Point","coordinates":[2.3506488,48.8588295]},"properties":{"osm_id":8676016717,"ref":"PA_1172","artist_name":"Invader","artwork_subject":"street_art","description":"Bugs Bunny bleu et blanc mangeant une banane et s'appuyant sur l'arête du bâtiment."}},{"type":"Feature","geometry":{"type":"Point","coordinates":[2.3519385,48.8585917]},"properties":{"osm_id":8676094817,"ref":"PA_815","artist_name":"Invader","artwork_subject":"street_art","description":null}},{"type":"Feature","geometry":{"type":"Point","coordinates":[2.352756,48.8594716]},"properties":{"osm_id":8676094818,"ref":"PA_525","artist_name":"Invader","artwork_subject":"street_art","description":null}},{"type":"Feature","geometry":{"type":"Point","coordinates":[2.3560545,48.8581998]},"properties":{"osm_id":8676095017,"ref":"PA_294","artist_name":"Invader","artwork_subject":"street_art","description":null}},{"type":"Feature","geometry":{"type":"Point","coordinates":[2.3540123,48.8592763]},"properties":{"osm_id":8676125140,"ref":"PA_103","artist_name":"Invader","artwork_subject":"street_art","description":"dans le 30"}},{"type":"Feature","geometry":{"type":"Point","coordinates":[2.3644168,48.8618192]},"properties":{"osm_id":8676136431,"ref":"PA_1094","artist_name":"Invader","artwork_subject":"street_art","description":null}},{"type":"Feature","geometry":{"type":"Point","coordinates":[2.3547422,48.8603773]},"properties":{"osm_id":8676147018,"ref":"PA_189","artist_name":"Invader","artwork_subject":"street_art","description":"retouches"}},{"type":"Feature","geometry":{"type":"Point","coordinates":[2.3510024,48.8618745]},"properties":{"osm_id":8676232718,"ref":"PA_997","artist_name":"Invader","artwork_subject":"street_art","description":null}},{"type":"Feature","geometry":{"type":"Point","coordinates":[2.3547477,48.8592613]},"properties":{"osm_id":8676262317,"ref":"PA_953","artist_name":"Invader","artwork_subject":"street_art","description":null}},{"type":"Feature","geometry":{"type":"Point","coordinates":[2.343507,48.8612443]},"properties":{"osm_id":8676262320,"ref":"PA_493","artist_name":"Invader","artwork_subject":"street_art","description":null}},{"type":"Feature","geometry":{"type":"Point","coordinates":[2.3441335,48.8616433]},"properties":{"osm_id":8676262517,"ref":"PA_508","artist_name":"Invader","artwork_subject":"street_art","description":"petit schtroumpf en bas d'un mur"}},{"type":"Feature","geometry":{"type":"Point","coordinates":[2.3627411,48.8238465]},"properties":{"osm_id":8687611018,"ref":"PA_667","artist_name":"Invader","artwork_subject":"street_art","description":null}},{"type":"Feature","geometry":{"type":"Point","coordinates":[2.3505135,48.8103051]},"properties":{"osm_id":8687611019,"ref":"PA_1409","artist_name":"Invader","artwork_subject":"street_art","description":null}},{"type":"Feature","geometry":{"type":"Point","coordinates":[2.3651138,48.8229328]},"properties":{"osm_id":8687648517,"ref":"PA_350","artist_name":"Invader","artwork_subject":"street_art","description":null}},{"type":"Feature","geometry":{"type":"Point","coordinates":[2.3527745,48.821715]},"properties":{"osm_id":8687723218,"ref":"PA_1199","artist_name":"Invader","artwork_subject":"street_art","description":null}},{"type":"Feature","geometry":{"type":"Point","coordinates":[2.374895,48.8255538]},"properties":{"osm_id":8687723219,"ref":"PA_705","artist_name":"Invader","artwork_subject":"street_art","description":null}},{"type":"Feature","geometry":{"type":"Point","coordinates":[2.3643765,48.8167507]},"properties":{"osm_id":8687731717,"ref":"PA_1400","artist_name":"Invader","artwork_subject":"street_art","description":null}},{"type":"Feature","geometry":{"type":"Point","coordinates":[2.3425078,48.8216209]},"properties":{"osm_id":8687954019,"ref":"PA_216","artist_name":"Invader","artwork_subject":"street_art","description":null}},{"type":"Feature","geometry":{"type":"Point","coordinates":[2.3601074,48.8262673]},"properties":{"osm_id":8687954120,"ref":"PA_363","artist_name":"Invader","artwork_subject":"street_art","description":null}},{"type":"Feature","geometry":{"type":"Point","coordinates":[2.3529248,48.8289647]},"properties":{"osm_id":8687954121,"ref":"PA_78","artist_name":"Invader","artwork_subject":"street_art","description":null}},{"type":"Feature","geometry":{"type":"Point","coordinates":[2.3516543,48.8275089]},"properties":{"osm_id":8687954122,"ref":"PA_79","artist_name":"Invader","artwork_subject":"street_art","description":null}},{"type":"Feature","geometry":{"type":"Point","coordinates":[2.3534479,48.8291543]},"properties":{"osm_id":8687954123,"ref":"PA_1103","artist_name":"Invader","artwork_subject":"street_art","description":null}},{"type":"Feature","geometry":{"type":"Point","coordinates":[2.3529601,48.8276734]},"properties":{"osm_id":8687954124,"ref":"PA_55","artist_name":"Invader","artwork_subject":"street_art","description":null}},{"type":"Feature","geometry":{"type":"Point","coordinates":[2.3545631,48.8269233]},"properties":{"osm_id":8687954125,"ref":"PA_1331","artist_name":"Invader","artwork_subject":"street_art","description":null}},{"type":"Feature","geometry":{"type":"Point","coordinates":[2.356723,48.8307471]},"properties":{"osm_id":8687974717,"ref":"PA_1179","artist_name":"Invader","artwork_subject":"street_art","description":null}},{"type":"Feature","geometry":{"type":"Point","coordinates":[2.350719,48.8268396]},"properties":{"osm_id":8687974817,"ref":"PA_303","artist_name":"Invader","artwork_subject":"street_art","description":null}},{"type":"Feature","geometry":{"type":"Point","coordinates":[2.3425502,48.8278116]},"properties":{"osm_id":8687974818,"ref":"PA_1371","artist_name":"Invader","artwork_subject":"street_art","description":null}},{"type":"Feature","geometry":{"type":"Point","coordinates":[2.3642357,48.8267249]},"properties":{"osm_id":8687984017,"ref":"PA_272","artist_name":"Invader","artwork_subject":"street_art","description":"petit rouge rue"}},{"type":"Feature","geometry":{"type":"Point","coordinates":[2.3101611,48.8571898]},"properties":{"osm_id":8693376417,"ref":"PA_598","artist_name":"Invader","artwork_subject":"street_art","description":null}},{"type":"Feature","geometry":{"type":"Point","coordinates":[2.319965,48.8625088]},"properties":{"osm_id":8693376517,"ref":"PA_402","artist_name":"Invader","artwork_subject":"street_art","description":null}},{"type":"Feature","geometry":{"type":"Point","coordinates":[2.3267711,48.8760099]},"properties":{"osm_id":8693376518,"ref":"PA_729","artist_name":"Invader","artwork_subject":"street_art","description":"pilier gauche"}},{"type":"Feature","geometry":{"type":"Point","coordinates":[2.5281587,49.0067647]},"properties":{"osm_id":8718066018,"ref":"PA_497","artist_name":"Invader","artwork_subject":"street_art","description":null}},{"type":"Feature","geometry":{"type":"Point","coordinates":[2.3157226,48.8712506]},"properties":{"osm_id":9103558786,"ref":"PA_1074","artist_name":"Invader","artwork_subject":"street_art","description":null}},{"type":"Feature","geometry":{"type":"Point","coordinates":[2.2901455,48.8808346]},"properties":{"osm_id":9105629050,"ref":"PA_1182","artist_name":"Invader","artwork_subject":"street_art","description":null}},{"type":"Feature","geometry":{"type":"Point","coordinates":[2.3408365,48.8478386]},"properties":{"osm_id":9272082711,"ref":"PA_487","artist_name":"Invader","artwork_subject":"street_art","description":null}},{"type":"Feature","geometry":{"type":"Point","coordinates":[2.3752588,48.8300039]},"properties":{"osm_id":9509756816,"ref":"PA_427","artist_name":"Invader","artwork_subject":"street_art","description":null}},{"type":"Feature","geometry":{"type":"Point","coordinates":[2.3268719,48.8851081]},"properties":{"osm_id":9542944847,"ref":"PA_1114","artist_name":"Invader","artwork_subject":"street_art","description":null}},{"type":"Feature","geometry":{"type":"Point","coordinates":[2.3388784,48.8521827]},"properties":{"osm_id":9905753637,"ref":"PA_1209","artist_name":"Invader","artwork_subject":"street_art","description":null}},{"type":"Feature","geometry":{"type":"Point","coordinates":[2.347721,48.864331]},"properties":{"osm_id":9980038623,"ref":"PA_919","artist_name":"Invader","artwork_subject":"street_art","description":null}},{"type":"Feature","geometry":{"type":"Point","coordinates":[2.2745849,48.8470587]},"properties":{"osm_id":10033210547,"ref":"PA_1309","artist_name":"Invader","artwork_subject":"street_art","description":null}},{"type":"Feature","geometry":{"type":"Point","coordinates":[2.2911103,48.8601664]},"properties":{"osm_id":10033276179,"ref":"PA_343","artist_name":"Invader","artwork_subject":"street_art","description":null}},{"type":"Feature","geometry":{"type":"Point","coordinates":[2.3360476,48.8651059]},"properties":{"osm_id":10171639356,"ref":"PA_581","artist_name":"Invader","artwork_subject":"street_art","description":null}},{"type":"Feature","geometry":{"type":"Point","coordinates":[2.3557995,48.8495838]},"properties":{"osm_id":10290137313,"ref":"PA_1241","artist_name":"Invader","artwork_subject":"street_art","description":null}},{"type":"Feature","geometry":{"type":"Point","coordinates":[2.3644268,48.8448664]},"properties":{"osm_id":10290414009,"ref":"PA_1268","artist_name":"Invader","artwork_subject":"street_art","description":"(détruit)"}},{"type":"Feature","geometry":{"type":"Point","coordinates":[2.3685019,48.8215705]},"properties":{"osm_id":10290414210,"ref":"PA_1178","artist_name":"Invader","artwork_subject":"street_art","description":"(dragon rouge)"}},{"type":"Feature","geometry":{"type":"Point","coordinates":[2.3637825,48.8431403]},"properties":{"osm_id":10290442509,"ref":"PA_1383","artist_name":"Invader","artwork_subject":"street_art","description":null}},{"type":"Feature","geometry":{"type":"Point","coordinates":[2.3330885,48.8665245]},"properties":{"osm_id":10291180509,"ref":"PA_842","artist_name":"Invader","artwork_subject":"street_art","description":null}},{"type":"Feature","geometry":{"type":"Point","coordinates":[2.3510803,48.847102]},"properties":{"osm_id":10291248609,"ref":"PA_04","artist_name":"Invader","artwork_subject":"street_art","description":null}},{"type":"Feature","geometry":{"type":"Point","coordinates":[2.4003754,48.8348466]},"properties":{"osm_id":10291310410,"ref":"PA_488","artist_name":"Invader","artwork_subject":"street_art","description":null}},{"type":"Feature","geometry":{"type":"Point","coordinates":[2.4002237,48.8361929]},"properties":{"osm_id":10291335209,"ref":"PA_1440","artist_name":"Invader","artwork_subject":"street_art","description":null}},{"type":"Feature","geometry":{"type":"Point","coordinates":[2.3829472,48.8398165]},"properties":{"osm_id":10291341909,"ref":"PA_980","artist_name":"Invader","artwork_subject":"street_art","description":null}},{"type":"Feature","geometry":{"type":"Point","coordinates":[2.3832798,48.8451273]},"properties":{"osm_id":10291347709,"ref":"PA_981","artist_name":"Invader","artwork_subject":"street_art","description":null}},{"type":"Feature","geometry":{"type":"Point","coordinates":[2.3724756,48.8444256]},"properties":{"osm_id":10291359409,"ref":"PA_1130","artist_name":"Invader","artwork_subject":"street_art","description":null}},{"type":"Feature","geometry":{"type":"Point","coordinates":[2.3805575,48.8479943]},"properties":{"osm_id":10291367009,"ref":"PA_15","artist_name":"Invader","artwork_subject":"street_art","description":null}},{"type":"Feature","geometry":{"type":"Point","coordinates":[2.4008681,48.8410007]},"properties":{"osm_id":10291396709,"ref":"PA_241","artist_name":"Invader","artwork_subject":"street_art","description":null}},{"type":"Feature","geometry":{"type":"Point","coordinates":[2.4554729,48.8181636]},"properties":{"osm_id":10291413309,"ref":"PA_269","artist_name":"Invader","artwork_subject":"street_art","description":null}},{"type":"Feature","geometry":{"type":"Point","coordinates":[2.373491,48.850254]},"properties":{"osm_id":10291420810,"ref":"PA_301","artist_name":"Invader","artwork_subject":"street_art","description":null}},{"type":"Feature","geometry":{"type":"Point","coordinates":[2.3929103,48.8478241]},"properties":{"osm_id":10291421012,"ref":"PA_326","artist_name":"Invader","artwork_subject":"street_art","description":null}},{"type":"Feature","geometry":{"type":"Point","coordinates":[2.3850057,48.8317362]},"properties":{"osm_id":10291437809,"ref":"PA_391","artist_name":"Invader","artwork_subject":"street_art","description":null}},{"type":"Feature","geometry":{"type":"Point","coordinates":[2.3958931,48.8385956]},"properties":{"osm_id":10291449109,"ref":"PA_558","artist_name":"Invader","artwork_subject":"street_art","description":null}},{"type":"Feature","geometry":{"type":"Point","coordinates":[2.3963502,48.8387088]},"properties":{"osm_id":10291467209,"ref":"PA_559","artist_name":"Invader","artwork_subject":"street_art","description":null}},{"type":"Feature","geometry":{"type":"Point","coordinates":[2.3960151,48.8388659]},"properties":{"osm_id":10291472909,"ref":"PA_740","artist_name":"Invader","artwork_subject":"street_art","description":null}},{"type":"Feature","geometry":{"type":"Point","coordinates":[2.3869741,48.846761]},"properties":{"osm_id":10291478213,"ref":"PA_604","artist_name":"Invader","artwork_subject":"street_art","description":null}},{"type":"Feature","geometry":{"type":"Point","coordinates":[2.3674474,48.8472515]},"properties":{"osm_id":10291478609,"ref":"PA_571","artist_name":"Invader","artwork_subject":"street_art","description":null}},{"type":"Feature","geometry":{"type":"Point","coordinates":[2.3896235,48.8280263]},"properties":{"osm_id":10291491309,"ref":"PA_887","artist_name":"Invader","artwork_subject":"street_art","description":null}},{"type":"Feature","geometry":{"type":"Point","coordinates":[2.3674263,48.8306444]},"properties":{"osm_id":10291511209,"ref":"PA_706","artist_name":"Invader","artwork_subject":"street_art","description":null}},{"type":"Feature","geometry":{"type":"Point","coordinates":[2.3705176,48.8820794]},"properties":{"osm_id":10291616909,"ref":"PA_741","artist_name":"Invader","artwork_subject":"street_art","description":null}},{"type":"Feature","geometry":{"type":"Point","coordinates":[2.3461576,48.8531542]},"properties":{"osm_id":10291696609,"ref":"PA_873","artist_name":"Invader","artwork_subject":"street_art","description":null}},{"type":"Feature","geometry":{"type":"Point","coordinates":[2.343619,48.8532186]},"properties":{"osm_id":10291707809,"ref":"PA_98","artist_name":"Invader","artwork_subject":"street_art","description":"space invader blanc sur fond bleu entouré d'une ligne verte comme un panneau de rue"}},{"type":"Feature","geometry":{"type":"Point","coordinates":[2.3844394,48.8794645]},"properties":{"osm_id":10291724810,"ref":"PA_986","artist_name":"Invader","artwork_subject":"street_art","description":null}},{"type":"Feature","geometry":{"type":"Point","coordinates":[2.381084,48.8761755]},"properties":{"osm_id":10291724811,"ref":"PA_443","artist_name":"Invader","artwork_subject":"street_art","description":null}},{"type":"Feature","geometry":{"type":"Point","coordinates":[2.381386,48.8757801]},"properties":{"osm_id":10291738709,"ref":"PA_708","artist_name":"Invader","artwork_subject":"street_art","description":null}},{"type":"Feature","geometry":{"type":"Point","coordinates":[2.3835929,48.8758206]},"properties":{"osm_id":10291754409,"ref":"PA_738","artist_name":"Invader","artwork_subject":"street_art","description":null}},{"type":"Feature","geometry":{"type":"Point","coordinates":[2.3706022,48.8846163]},"properties":{"osm_id":10291757509,"ref":"PA_162","artist_name":"Invader","artwork_subject":"street_art","description":null}},{"type":"Feature","geometry":{"type":"Point","coordinates":[2.3706142,48.8776486]},"properties":{"osm_id":10291767509,"ref":"PA_437","artist_name":"Invader","artwork_subject":"street_art","description":null}},{"type":"Feature","geometry":{"type":"Point","coordinates":[2.3894741,48.879438]},"properties":{"osm_id":10291767510,"ref":"PA_389","artist_name":"Invader","artwork_subject":"street_art","description":null}},{"type":"Feature","geometry":{"type":"Point","coordinates":[2.3898165,48.8790532]},"properties":{"osm_id":10291775209,"ref":"PA_302","artist_name":"Invader","artwork_subject":"street_art","description":null}},{"type":"Feature","geometry":{"type":"Point","coordinates":[2.3858478,48.8829406]},"properties":{"osm_id":10291789309,"ref":"PA_438","artist_name":"Invader","artwork_subject":"street_art","description":null}},{"type":"Feature","geometry":{"type":"Point","coordinates":[2.3854729,48.8852899]},"properties":{"osm_id":10291847209,"ref":"PA_166","artist_name":"Invader","artwork_subject":"street_art","description":null}},{"type":"Feature","geometry":{"type":"Point","coordinates":[2.292625,48.8802529]},"properties":{"osm_id":10291940709,"ref":"PA_617","artist_name":"Invader","artwork_subject":"street_art","description":null}},{"type":"Feature","geometry":{"type":"Point","coordinates":[2.2929306,48.8805655]},"properties":{"osm_id":10291940809,"ref":"PA_618","artist_name":"Invader","artwork_subject":"street_art","description":null}},{"type":"Feature","geometry":{"type":"Point","coordinates":[2.2895775,48.8810921]},"properties":{"osm_id":10291940909,"ref":"PA_663","artist_name":"Invader","artwork_subject":"street_art","description":null}},{"type":"Feature","geometry":{"type":"Point","coordinates":[2.3234055,48.8835406]},"properties":{"osm_id":10291959410,"ref":"PA_728","artist_name":"Invader","artwork_subject":"street_art","description":null}},{"type":"Feature","geometry":{"type":"Point","coordinates":[2.3203313,48.8875231]},"properties":{"osm_id":10291969409,"ref":"PA_1410","artist_name":"Invader","artwork_subject":"street_art","description":null}},{"type":"Feature","geometry":{"type":"Point","coordinates":[2.3156693,48.8821993]},"properties":{"osm_id":10291969509,"ref":"PA_1280","artist_name":"Invader","artwork_subject":"street_art","description":null}},{"type":"Feature","geometry":{"type":"Point","coordinates":[2.3192419,48.8913625]},"properties":{"osm_id":10291982410,"ref":"PA_1462","artist_name":"Invader","artwork_subject":"street_art","description":null}},{"type":"Feature","geometry":{"type":"Point","coordinates":[2.3685626,48.8314707]},"properties":{"osm_id":10295098510,"ref":"PA_385","artist_name":"Invader","artwork_subject":"street_art","description":null}},{"type":"Feature","geometry":{"type":"Point","coordinates":[2.3569798,48.838332]},"properties":{"osm_id":10295098511,"ref":"PA_76","artist_name":"Invader","artwork_subject":"street_art","description":null}},{"type":"Feature","geometry":{"type":"Point","coordinates":[2.3691879,48.83125]},"properties":{"osm_id":10295115509,"ref":"PA_422","artist_name":"Invader","artwork_subject":"street_art","description":null}},{"type":"Feature","geometry":{"type":"Point","coordinates":[2.3550094,48.8361805]},"properties":{"osm_id":10295115609,"ref":"PA_1330","artist_name":"Invader","artwork_subject":"street_art","description":null}},{"type":"Feature","geometry":{"type":"Point","coordinates":[2.3432892,48.8856471]},"properties":{"osm_id":10926925983,"ref":"PA_171","artist_name":"Invader","artwork_subject":"street_art","description":null}},{"type":"Feature","geometry":{"type":"Point","coordinates":[2.3371273,48.8872313]},"properties":{"osm_id":10926988658,"ref":"PA_640","artist_name":"Invader","artwork_subject":"street_art","description":null}},{"type":"Feature","geometry":{"type":"Point","coordinates":[2.3536329,48.887855]},"properties":{"osm_id":10927084079,"ref":"PA_1479","artist_name":"Invader","artwork_subject":"street_art","description":null}},{"type":"Feature","geometry":{"type":"Point","coordinates":[2.3343688,48.8945314]},"properties":{"osm_id":10933570161,"ref":"PA_890","artist_name":"Invader","artwork_subject":"street_art","description":null}},{"type":"Feature","geometry":{"type":"Point","coordinates":[2.3321251,48.8941633]},"properties":{"osm_id":10933581437,"ref":"PA_659","artist_name":"Invader","artwork_subject":"street_art","description":null}},{"type":"Feature","geometry":{"type":"Point","coordinates":[2.3312267,48.8800642]},"properties":{"osm_id":10933589633,"ref":"PA_1455","artist_name":"Invader","artwork_subject":"street_art","description":null}},{"type":"Feature","geometry":{"type":"Point","coordinates":[2.3437143,48.87571]},"properties":{"osm_id":10933590525,"ref":"PA_1458","artist_name":"Invader","artwork_subject":"street_art","description":null}},{"type":"Feature","geometry":{"type":"Point","coordinates":[2.3433137,48.8721408]},"properties":{"osm_id":10933607676,"ref":"PA_1459","artist_name":"Invader","artwork_subject":"street_art","description":null}},{"type":"Feature","geometry":{"type":"Point","coordinates":[2.3426447,48.8654818]},"properties":{"osm_id":11003349008,"ref":"PA_297","artist_name":"Invader","artwork_subject":"street_art","description":null}},{"type":"Feature","geometry":{"type":"Point","coordinates":[2.3459121,48.8707028]},"properties":{"osm_id":11004350414,"ref":"PA_20","artist_name":"Invader","artwork_subject":"street_art","description":null}},{"type":"Feature","geometry":{"type":"Point","coordinates":[2.3764191,48.871968]},"properties":{"osm_id":11005796988,"ref":"PA_292","artist_name":"Invader","artwork_subject":"street_art","description":null}},{"type":"Feature","geometry":{"type":"Point","coordinates":[2.3644205,48.8678703]},"properties":{"osm_id":11005799188,"ref":"PA_370","artist_name":"Invader","artwork_subject":"street_art","description":null}},{"type":"Feature","geometry":{"type":"Point","coordinates":[2.3489817,48.8633891]},"properties":{"osm_id":11005807757,"ref":"PA_319","artist_name":"Invader","artwork_subject":"street_art","description":null}},{"type":"Feature","geometry":{"type":"Point","coordinates":[2.3689075,48.8818303]},"properties":{"osm_id":11005875651,"ref":"PA_633","artist_name":"Invader","artwork_subject":"street_art","description":null}},{"type":"Feature","geometry":{"type":"Point","coordinates":[2.3688631,48.8818817]},"properties":{"osm_id":11006051994,"ref":"PA_1148","artist_name":"Invader","artwork_subject":"street_art","description":null}},{"type":"Feature","geometry":{"type":"Point","coordinates":[2.3637933,48.8740509]},"properties":{"osm_id":11006074370,"ref":"PA_1469","artist_name":"Invader","artwork_subject":"street_art","description":null}},{"type":"Feature","geometry":{"type":"Point","coordinates":[2.3478886,48.8631069]},"properties":{"osm_id":11006077792,"ref":"PA_1480","artist_name":"Invader","artwork_subject":"street_art","description":null}},{"type":"Feature","geometry":{"type":"Point","coordinates":[2.3668094,48.8802642]},"properties":{"osm_id":11006107893,"ref":"PA_1471","artist_name":"Invader","artwork_subject":"street_art","description":null}},{"type":"Feature","geometry":{"type":"Point","coordinates":[2.2615388,48.8451182]},"properties":{"osm_id":11006181001,"ref":"PA_1437","artist_name":"Invader","artwork_subject":"street_art","description":null}},{"type":"Feature","geometry":{"type":"Point","coordinates":[2.2620382,48.8348169]},"properties":{"osm_id":11006190428,"ref":"PA_760","artist_name":"Invader","artwork_subject":"street_art","description":null}},{"type":"Feature","geometry":{"type":"Point","coordinates":[2.2765224,48.8627955]},"properties":{"osm_id":11006240182,"ref":"PA_1436","artist_name":"Invader","artwork_subject":"street_art","description":null}},{"type":"Feature","geometry":{"type":"Point","coordinates":[2.3758969,48.853345]},"properties":{"osm_id":11101593898,"ref":"PA_277","artist_name":"Invader","artwork_subject":"street_art","description":null}},{"type":"Feature","geometry":{"type":"Point","coordinates":[2.3709187,48.845261]},"properties":{"osm_id":11101604407,"ref":"PA_1404","artist_name":"Invader","artwork_subject":"street_art","description":null}},{"type":"Feature","geometry":{"type":"Point","coordinates":[2.3735169,48.8515533]},"properties":{"osm_id":11101747116,"ref":"PA_175","artist_name":"Invader","artwork_subject":"street_art","description":null}},{"type":"Feature","geometry":{"type":"Point","coordinates":[2.3617342,48.8571447]},"properties":{"osm_id":11101789590,"ref":"PA_35","artist_name":"Invader","artwork_subject":"street_art","description":null}},{"type":"Feature","geometry":{"type":"Point","coordinates":[2.3666726,48.8559969]},"properties":{"osm_id":11101789596,"ref":"PA_637","artist_name":"Invader","artwork_subject":"street_art","description":null}},{"type":"Feature","geometry":{"type":"Point","coordinates":[2.3485521,48.8608827]},"properties":{"osm_id":11102054065,"ref":"PA_1213","artist_name":"Invader","artwork_subject":"street_art","description":null}},{"type":"Feature","geometry":{"type":"Point","coordinates":[2.3496961,48.8626958]},"properties":{"osm_id":11102054068,"ref":"PA_355","artist_name":"Invader","artwork_subject":"street_art","description":null}},{"type":"Feature","geometry":{"type":"Point","coordinates":[2.353392,48.8613377]},"properties":{"osm_id":11102054071,"ref":"PA_585","artist_name":"Invader","artwork_subject":"street_art","description":"fantome type pacman de couleur orange sur fond vert"}},{"type":"Feature","geometry":{"type":"Point","coordinates":[2.3585056,48.8586455]},"properties":{"osm_id":11102054072,"ref":"PA_34","artist_name":"Invader","artwork_subject":"street_art","description":null}},{"type":"Feature","geometry":{"type":"Point","coordinates":[2.3506294,48.8585127]},"properties":{"osm_id":11111401224,"ref":"PA_1485","artist_name":"Invader","artwork_subject":"street_art","description":"grand space invadeur vert"}},{"type":"Feature","geometry":{"type":"Point","coordinates":[2.3626029,48.8545842]},"properties":{"osm_id":11112969025,"ref":"PA_1153","artist_name":"Invader","artwork_subject":"street_art","description":"space invader blanc sur fond bleu"}},{"type":"Feature","geometry":{"type":"Point","coordinates":[2.3594976,48.8553021]},"properties":{"osm_id":11112969098,"ref":"PA_570","artist_name":"Invader","artwork_subject":"street_art","description":"space invader rouge dans un cadre vert clair"}},{"type":"Feature","geometry":{"type":"Point","coordinates":[2.3658247,48.8519662]},"properties":{"osm_id":11148942495,"ref":"PA_704","artist_name":"Invader","artwork_subject":"street_art","description":"space invader noir aux yeux bleu sur fond rouge et bleu. Il est caché derriere une gaine"}},{"type":"Feature","geometry":{"type":"Point","coordinates":[2.3875408,48.8763013]},"properties":{"osm_id":11161223399,"ref":"PA_1015","artist_name":"Invader","artwork_subject":"street_art","description":"space invader noir yeux blanc sur font blanc en haut et vert en bas"}},{"type":"Feature","geometry":{"type":"Point","coordinates":[2.352041,48.8528242]},"properties":{"osm_id":11161932279,"ref":"PA_1246","artist_name":"Invader","artwork_subject":"street_art","description":"space invader blanc yeux bleu sur fond bleu entouré de vert (come un panneau de nom de rue)"}},{"type":"Feature","geometry":{"type":"Point","coordinates":[2.3490639,48.8519071]},"properties":{"osm_id":11161995498,"ref":"PA_556","artist_name":"Invader","artwork_subject":"street_art","description":"Space invader rouge sur rectangle vert claire avec écrit \"I space invader Paris\""}},{"type":"Feature","geometry":{"type":"Point","coordinates":[2.3510286,48.8569919]},"properties":{"osm_id":11164777293,"ref":null,"artist_name":"Invader","artwork_subject":"street_art","description":"donkey kong"}},{"type":"Feature","geometry":{"type":"Point","coordinates":[2.3846915,48.8516135]},"properties":{"osm_id":11167727931,"ref":"PA_1014","artist_name":"Invader","artwork_subject":"street_art","description":null}},{"type":"Feature","geometry":{"type":"Point","coordinates":[2.3505368,48.8610042]},"properties":{"osm_id":11172111893,"ref":"PA_30","artist_name":"Invader","artwork_subject":"street_art","description":"invadeur rouge. il a semble t'il etait legerement recouvert lors de la peinture faite sur le mur en noir. Situé dans le passage sous le batiment vers le sol"}},{"type":"Feature","geometry":{"type":"Point","coordinates":[2.3504753,48.8610565]},"properties":{"osm_id":11172111894,"ref":"PA_02","artist_name":"Invader","artwork_subject":"street_art","description":"Invadeur rouge yeux bleu"}},{"type":"Feature","geometry":{"type":"Point","coordinates":[2.3552149,48.8607487]},"properties":{"osm_id":11176946193,"ref":"PA_769","artist_name":"Invader","artwork_subject":"street_art","description":"buble bleu du jeu bublebubble avec un panneau"}},{"type":"Feature","geometry":{"type":"Point","coordinates":[2.3590258,48.8585953]},"properties":{"osm_id":11198130971,"ref":"PA_1161","artist_name":"Invader","artwork_subject":"street_art","description":"un vase blanc avec dessu deux space invader bleu clair"}},{"type":"Feature","geometry":{"type":"Point","coordinates":[2.3627412,48.8586993]},"properties":{"osm_id":11198539770,"ref":"PA_878","artist_name":"Invader","artwork_subject":"street_art","description":"space invader noir aux yeux blanc sur un carré jaune en haut et mauve en bas"}},{"type":"Feature","geometry":{"type":"Point","coordinates":[2.3412497,48.8615238]},"properties":{"osm_id":11208973892,"ref":"PA_1097","artist_name":"Invader","artwork_subject":"street_art","description":null}},{"type":"Feature","geometry":{"type":"Point","coordinates":[2.334351,48.8664304]},"properties":{"osm_id":11229806318,"ref":"PA_1487","artist_name":"Invader","artwork_subject":"street_art","description":null}},{"type":"Feature","geometry":{"type":"Point","coordinates":[2.339081,48.8623911]},"properties":{"osm_id":11229837686,"ref":"PA_463","artist_name":"Invader","artwork_subject":"street_art","description":null}},{"type":"Feature","geometry":{"type":"Point","coordinates":[2.3697543,48.8772871]},"properties":{"osm_id":11230756421,"ref":"PA_1489","artist_name":"Invader","artwork_subject":"street_art","description":null}},{"type":"Feature","geometry":{"type":"Point","coordinates":[2.2861844,48.880225]},"properties":{"osm_id":11230781508,"ref":"PA_1488","artist_name":"Invader","artwork_subject":"street_art","description":null}},{"type":"Feature","geometry":{"type":"Point","coordinates":[2.3707303,48.8734222]},"properties":{"osm_id":11230812709,"ref":"PA_199","artist_name":"Invader","artwork_subject":"street_art","description":null}},{"type":"Feature","geometry":{"type":"Point","coordinates":[2.3110523,48.8581849]},"properties":{"osm_id":11234089043,"ref":"PA_1449","artist_name":"Invader","artwork_subject":"street_art","description":null}},{"type":"Feature","geometry":{"type":"Point","coordinates":[2.3037848,48.853965]},"properties":{"osm_id":11237152438,"ref":"PA_1342","artist_name":"Invader","artwork_subject":"street_art","description":"invadeur de couleur bleu et yeux bleu tenant un drapeau français"}},{"type":"Feature","geometry":{"type":"Point","coordinates":[2.3636141,48.8621291]},"properties":{"osm_id":11247749024,"ref":"PA_356","artist_name":"Invader","artwork_subject":"street_art","description":null}},{"type":"Feature","geometry":{"type":"Point","coordinates":[2.3639878,48.8604223]},"properties":{"osm_id":11247771283,"ref":"PA_341","artist_name":"Invader","artwork_subject":"street_art","description":null}},{"type":"Feature","geometry":{"type":"Point","coordinates":[2.3649821,48.866616]},"properties":{"osm_id":11247772478,"ref":"PA_383","artist_name":"Invader","artwork_subject":"street_art","description":null}},{"type":"Feature","geometry":{"type":"Point","coordinates":[2.3630674,48.8651291]},"properties":{"osm_id":11247782564,"ref":"PA_954","artist_name":"Invader","artwork_subject":"street_art","description":null}},{"type":"Feature","geometry":{"type":"Point","coordinates":[2.3532896,48.8626883]},"properties":{"osm_id":11248338674,"ref":"PA_1049","artist_name":"Invader","artwork_subject":"street_art","description":null}},{"type":"Feature","geometry":{"type":"Point","coordinates":[2.3612612,48.8600938]},"properties":{"osm_id":11248381602,"ref":"PA_1013","artist_name":"Invader","artwork_subject":"street_art","description":null}},{"type":"Feature","geometry":{"type":"Point","coordinates":[2.3582192,48.8648181]},"properties":{"osm_id":11248442646,"ref":"PA_1473","artist_name":"Invader","artwork_subject":"street_art","description":null}},{"type":"Feature","geometry":{"type":"Point","coordinates":[2.3414368,48.8764845]},"properties":{"osm_id":11250966192,"ref":"PA_1490","artist_name":"Invader","artwork_subject":"street_art","description":null}},{"type":"Feature","geometry":{"type":"Point","coordinates":[2.3543879,48.8558023]},"properties":{"osm_id":11263175839,"ref":"PA_230","artist_name":"Invader","artwork_subject":"street_art","description":null}},{"type":"Feature","geometry":{"type":"Point","coordinates":[2.3640147,48.8723595]},"properties":{"osm_id":11473300344,"ref":"PA_100","artist_name":"Invader","artwork_subject":"street_art","description":null}},{"type":"Feature","geometry":{"type":"Point","coordinates":[2.3518981,48.8445109]},"properties":{"osm_id":11663797350,"ref":"PA_1221","artist_name":"Invader","artwork_subject":"street_art","description":null}},{"type":"Feature","geometry":{"type":"Point","coordinates":[2.123226,48.7979265]},"properties":{"osm_id":11833395271,"ref":"VRS_19","artist_name":"Invader","artwork_subject":"street_art","description":null}},{"type":"Feature","geometry":{"type":"Point","coordinates":[2.3466182,48.8958702]},"properties":{"osm_id":11938895169,"ref":"PA_1372","artist_name":"Invader","artwork_subject":"street_art","description":null}},{"type":"Feature","geometry":{"type":"Point","coordinates":[2.3716067,48.8524311]},"properties":{"osm_id":12086028367,"ref":"PA_211","artist_name":"Invader","artwork_subject":"street_art","description":null}},{"type":"Feature","geometry":{"type":"Point","coordinates":[2.3230101,48.8783757]},"properties":{"osm_id":12189682469,"ref":"PA_484","artist_name":"Invader","artwork_subject":"street_art","description":null}},{"type":"Feature","geometry":{"type":"Point","coordinates":[2.3474319,48.8167315]},"properties":{"osm_id":12500622411,"ref":"PA_863","artist_name":"Invader","artwork_subject":"street_art","description":null}},{"type":"Feature","geometry":{"type":"Point","coordinates":[2.4099915,48.8919847]},"properties":{"osm_id":12637358201,"ref":"PA_414","artist_name":"Invader","artwork_subject":"street_art","description":null}},{"type":"Feature","geometry":{"type":"Point","coordinates":[2.355933,48.8579829]},"properties":{"osm_id":12789644416,"ref":"PA_1529","artist_name":"Invader","artwork_subject":"street_art","description":null}},{"type":"Feature","geometry":{"type":"Point","coordinates":[2.3638216,48.8602144]},"properties":{"osm_id":12819953527,"ref":"PA_1127","artist_name":"Invader","artwork_subject":"street_art","description":null}},{"type":"Feature","geometry":{"type":"Point","coordinates":[2.3635363,48.8615162]},"properties":{"osm_id":12819963652,"ref":"PA_1530","artist_name":"Invader","artwork_subject":"street_art","description":null}},{"type":"Feature","geometry":{"type":"Point","coordinates":[2.3630391,48.8615919]},"properties":{"osm_id":12819966147,"ref":"PA_575","artist_name":"Invader","artwork_subject":"street_art","description":null}},{"type":"Feature","geometry":{"type":"Point","coordinates":[2.3618053,48.8652361]},"properties":{"osm_id":12820283271,"ref":null,"artist_name":"Invader","artwork_subject":"street_art","description":null}},{"type":"Feature","geometry":{"type":"Point","coordinates":[2.3840351,48.8910022]},"properties":{"osm_id":12820847454,"ref":null,"artist_name":"Invader","artwork_subject":"street_art","description":null}},{"type":"Feature","geometry":{"type":"Point","coordinates":[2.3568496,48.8565454]},"properties":{"osm_id":12844094625,"ref":"PA_1156","artist_name":"Invader","artwork_subject":"street_art","description":null}},{"type":"Feature","geometry":{"type":"Point","coordinates":[2.3618119,48.8652035]},"properties":{"osm_id":13288161763,"ref":null,"artist_name":"Invader","artwork_subject":"street_art","description":null}},{"type":"Feature","geometry":{"type":"Point","coordinates":[2.3541876,48.8598881]},"properties":{"osm_id":13346873107,"ref":"PA_156","artist_name":"Invader","artwork_subject":"street_art","description":null}},{"type":"Feature","geometry":{"type":"Point","coordinates":[2.3433292,48.8523836]},"properties":{"osm_id":13373698691,"ref":null,"artist_name":"Invader","artwork_subject":"street_art","description":null}},{"type":"Feature","geometry":{"type":"Point","coordinates":[2.3515415,48.863147]},"properties":{"osm_id":13376267103,"ref":null,"artist_name":"Invader","artwork_subject":"street_art","description":null}},{"type":"Feature","geometry":{"type":"Point","coordinates":[2.3632519,48.8526444]},"properties":{"osm_id":13820152625,"ref":"PA_588","artist_name":"Invader","artwork_subject":"street_art","description":null}},{"type":"Feature","geometry":{"type":"Point","coordinates":[2.3544066,48.8574911]},"properties":{"osm_id":13820468413,"ref":"PA_1249","artist_name":"Invader","artwork_subject":"street_art","description":null}},{"type":"Feature","geometry":{"type":"Point","coordinates":[2.3526027,48.8581553]},"properties":{"osm_id":13820538140,"ref":null,"artist_name":"Invader","artwork_subject":"street_art","description":null}},{"type":"Feature","geometry":{"type":"Point","coordinates":[2.3601841,48.8578804]},"properties":{"osm_id":13821019132,"ref":null,"artist_name":"Invader","artwork_subject":"street_art","description":null}},{"type":"Feature","geometry":{"type":"Point","coordinates":[2.3549373,48.8362378]},"properties":{"osm_id":13841426563,"ref":null,"artist_name":"Invader","artwork_subject":"street_art","description":null}},{"type":"Feature","geometry":{"type":"Point","coordinates":[2.3498349,48.8397991]},"properties":{"osm_id":13841614374,"ref":null,"artist_name":"Invader","artwork_subject":"street_art","description":null}},{"type":"Feature","geometry":{"type":"Point","coordinates":[2.354408,48.8459776]},"properties":{"osm_id":13850347496,"ref":null,"artist_name":"Invader","artwork_subject":"street_art","description":null}},{"type":"Feature","geometry":{"type":"Point","coordinates":[2.3543167,48.8460845]},"properties":{"osm_id":13850347497,"ref":null,"artist_name":"Invader","artwork_subject":"street_art","description":null}},{"type":"Feature","geometry":{"type":"Point","coordinates":[2.3541641,48.8434029]},"properties":{"osm_id":13900009201,"ref":null,"artist_name":"Invader","artwork_subject":null,"description":"Pirate forever"}},{"type":"Feature","geometry":{"type":"Point","coordinates":[2.3674781,48.8626535]},"properties":{"osm_id":13907509267,"ref":null,"artist_name":"Invader","artwork_subject":null,"description":null}},{"type":"Feature","geometry":{"type":"Point","coordinates":[2.3639258,48.8658667]},"properties":{"osm_id":13907525586,"ref":null,"artist_name":"Invader","artwork_subject":null,"description":null}},{"type":"Feature","geometry":{"type":"Point","coordinates":[2.3516126,48.861727]},"properties":{"osm_id":13907610272,"ref":null,"artist_name":"Invader","artwork_subject":null,"description":"I’m the king"}},{"type":"Feature","geometry":{"type":"Point","coordinates":[2.3355737,48.8662583]},"properties":{"osm_id":13929718170,"ref":"PA_1269","artist_name":"Invader","artwork_subject":"street_art","description":null}}]}